{
  "norad_id": 54137,
  "name": "ONEWEB-0519",
  "history": [
    {
      "epoch": "2026-03-28T21:08:31.762752Z",
      "apogee_km": 1186.929917089311,
      "perigee_km": 1184.597966428967,
      "latitude_deg": -2.344102552490482e-05,
      "longitude_deg": 177.54084092739103,
      "height_km": 1188.6280912776167,
      "semi_major_axis_km": 7563.900941759139,
      "eccentricity": 0.00015415,
      "inclination_deg": 87.9209,
      "raan_deg": 320.9682,
      "arg_perigee_deg": 88.2831,
      "mean_anomaly_deg": 271.8478,
      "mean_motion_rev_day": 13.1972673
    },
    {
      "epoch": "2026-03-29T04:25:14.033280Z",
      "apogee_km": 1186.9523681726505,
      "perigee_km": 1184.5757904535303,
      "latitude_deg": 3.6754341678406564e-05,
      "longitude_deg": 68.00540233405674,
      "height_km": 1188.6325577296454,
      "semi_major_axis_km": 7563.90107931309,
      "eccentricity": 0.0001571,
      "inclination_deg": 87.9207,
      "raan_deg": 320.9078,
      "arg_perigee_deg": 88.5271,
      "mean_anomaly_deg": 271.6042,
      "mean_motion_rev_day": 13.19726694
    },
    {
      "epoch": "2026-03-30T04:04:31.344672Z",
      "apogee_km": 1186.9574259675546,
      "perigee_km": 1184.5702588616887,
      "latitude_deg": -4.7821088395153436e-05,
      "longitude_deg": 72.01580061508251,
      "height_km": 1188.6438426807,
      "semi_major_axis_km": 7563.900842414621,
      "eccentricity": 0.0001578,
      "inclination_deg": 87.9205,
      "raan_deg": 320.7118,
      "arg_perigee_deg": 89.0868,
      "mean_anomaly_deg": 271.0445,
      "mean_motion_rev_day": 13.19726756
    },
    {
      "epoch": "2026-03-30T13:10:24.147840Z",
      "apogee_km": 1186.9529567934133,
      "perigee_km": 1184.5727487877384,
      "latitude_deg": 5.6787149821019335e-06,
      "longitude_deg": -64.90325183343253,
      "height_km": 1188.6409916071889,
      "semi_major_axis_km": 7563.899852790576,
      "eccentricity": 0.00015734,
      "inclination_deg": 87.9205,
      "raan_deg": 320.6364,
      "arg_perigee_deg": 88.9945,
      "mean_anomaly_deg": 271.1368,
      "mean_motion_rev_day": 13.19727015
    },
    {
      "epoch": "2026-03-30T22:16:16.989024Z",
      "apogee_km": 1186.9652005688613,
      "perigee_km": 1184.561544308507,
      "latitude_deg": 3.089304338326326e-05,
      "longitude_deg": 158.17763586263132,
      "height_km": 1188.6334811908903,
      "semi_major_axis_km": 7563.900372438684,
      "eccentricity": 0.00015889,
      "inclination_deg": 87.9203,
      "raan_deg": 320.5611,
      "arg_perigee_deg": 88.623,
      "mean_anomaly_deg": 271.5085,
      "mean_motion_rev_day": 13.19726879
    },
    {
      "epoch": "2026-03-31T14:38:52.118880Z",
      "apogee_km": 1186.955107392997,
      "perigee_km": 1184.5739911852806,
      "latitude_deg": -1.3923880579422286e-06,
      "longitude_deg": -88.2770946386299,
      "height_km": 1188.6434024896612,
      "semi_major_axis_km": 7563.9015492891385,
      "eccentricity": 0.0001574,
      "inclination_deg": 87.9202,
      "raan_deg": 320.4253,
      "arg_perigee_deg": 89.0294,
      "mean_anomaly_deg": 271.1019,
      "mean_motion_rev_day": 13.19726571
    },
    {
      "epoch": "2026-04-01T21:34:51.731904Z",
      "apogee_km": 1186.9624417251162,
      "perigee_km": 1184.5646852464924,
      "latitude_deg": 6.993711187143818e-05,
      "longitude_deg": 166.19773955045812,
      "height_km": 1188.6601916292009,
      "semi_major_axis_km": 7563.900563485804,
      "eccentricity": 0.0001585,
      "inclination_deg": 87.92,
      "raan_deg": 320.1689,
      "arg_perigee_deg": 89.887,
      "mean_anomaly_deg": 270.2445,
      "mean_motion_rev_day": 13.19726829
    },
    {
      "epoch": "2026-04-02T21:14:09.049344Z",
      "apogee_km": 1186.9735019884902,
      "perigee_km": 1184.5503313315494,
      "latitude_deg": -2.3100796080408865e-05,
      "longitude_deg": 170.20791238717703,
      "height_km": 1188.6669977867377,
      "semi_major_axis_km": 7563.8989166600195,
      "eccentricity": 0.00016018,
      "inclination_deg": 87.9201,
      "raan_deg": 319.9727,
      "arg_perigee_deg": 90.2885,
      "mean_anomaly_deg": 269.8431,
      "mean_motion_rev_day": 13.1972726
    },
    {
      "epoch": "2026-04-03T15:25:54.671232Z",
      "apogee_km": 1186.9894228073772,
      "perigee_km": 1184.5341812562383,
      "latitude_deg": 3.605849110035727e-05,
      "longitude_deg": -103.6305600589573,
      "height_km": 1188.6801535503346,
      "semi_major_axis_km": 7563.8988020318075,
      "eccentricity": 0.0001623,
      "inclination_deg": 87.9196,
      "raan_deg": 319.8216,
      "arg_perigee_deg": 90.9063,
      "mean_anomaly_deg": 269.2256,
      "mean_motion_rev_day": 13.1972729
    },
    {
      "epoch": "2026-04-04T15:05:11.961888Z",
      "apogee_km": 1186.9944805996356,
      "perigee_km": 1184.5286496674025,
      "latitude_deg": 5.495634880286271e-05,
      "longitude_deg": -99.6198726378141,
      "height_km": 1188.6742363428323,
      "semi_major_axis_km": 7563.898565133519,
      "eccentricity": 0.000163,
      "inclination_deg": 87.9192,
      "raan_deg": 319.6258,
      "arg_perigee_deg": 90.6393,
      "mean_anomaly_deg": 269.4927,
      "mean_motion_rev_day": 13.19727352
    },
    {
      "epoch": "2026-04-05T14:44:29.205024Z",
      "apogee_km": 1187.0001903866605,
      "perigee_km": 1184.519837277885,
      "latitude_deg": 5.226851701414503e-05,
      "longitude_deg": -95.60978828402887,
      "height_km": 1188.624251577486,
      "semi_major_axis_km": 7563.897013832272,
      "eccentricity": 0.00016396,
      "inclination_deg": 87.9193,
      "raan_deg": 319.4292,
      "arg_perigee_deg": 88.3988,
      "mean_anomaly_deg": 271.7333,
      "mean_motion_rev_day": 13.19727758
    },
    {
      "epoch": "2026-04-05T16:33:39.823200Z",
      "apogee_km": 1187.0091512139525,
      "perigee_km": 1184.5206274923567,
      "latitude_deg": -1.214958623644421e-05,
      "longitude_deg": -122.9937621286717,
      "height_km": 1188.6345950209627,
      "semi_major_axis_km": 7563.901889353155,
      "eccentricity": 0.0001645,
      "inclination_deg": 87.9192,
      "raan_deg": 319.4142,
      "arg_perigee_deg": 88.656,
      "mean_anomaly_deg": 271.4761,
      "mean_motion_rev_day": 13.19726482
    },
    {
      "epoch": "2026-04-06T03:28:43.137408Z",
      "apogee_km": 1187.013744115432,
      "perigee_km": 1184.5054047334215,
      "latitude_deg": 3.281875408594764e-05,
      "longitude_deg": 72.70376000470357,
      "height_km": 1188.6723029384261,
      "semi_major_axis_km": 7563.896574424427,
      "eccentricity": 0.00016581,
      "inclination_deg": 87.919,
      "raan_deg": 319.3239,
      "arg_perigee_deg": 90.6332,
      "mean_anomaly_deg": 269.4991,
      "mean_motion_rev_day": 13.19727873
    },
    {
      "epoch": "2026-04-07T14:03:03.821760Z",
      "apogee_km": 1187.0326520455865,
      "perigee_km": 1184.4890644738107,
      "latitude_deg": 7.57336376263444e-05,
      "longitude_deg": -87.588965604211,
      "height_km": 1188.703753334573,
      "semi_major_axis_km": 7563.897858259698,
      "eccentricity": 0.00016814,
      "inclination_deg": 87.9189,
      "raan_deg": 319.0372,
      "arg_perigee_deg": 91.9857,
      "mean_anomaly_deg": 268.1469,
      "mean_motion_rev_day": 13.19727537
    },
    {
      "epoch": "2026-04-07T15:52:14.398464Z",
      "apogee_km": 1187.0288200480163,
      "perigee_km": 1184.494913927574,
      "latitude_deg": -4.997417516643512e-05,
      "longitude_deg": -114.97286847862806,
      "height_km": 1188.7077445727832,
      "semi_major_axis_km": 7563.8988669877945,
      "eccentricity": 0.0001675,
      "inclination_deg": 87.9188,
      "raan_deg": 319.0221,
      "arg_perigee_deg": 92.1269,
      "mean_anomaly_deg": 268.0055,
      "mean_motion_rev_day": 13.19727273
    },
    {
      "epoch": "2026-04-08T13:42:21.159072Z",
      "apogee_km": 1187.0316768069715,
      "perigee_km": 1184.4923246344506,
      "latitude_deg": 9.425045152950533e-06,
      "longitude_deg": -83.57887855064546,
      "height_km": 1188.7085288709761,
      "semi_major_axis_km": 7563.899000720711,
      "eccentricity": 0.00016786,
      "inclination_deg": 87.9188,
      "raan_deg": 318.841,
      "arg_perigee_deg": 92.1524,
      "mean_anomaly_deg": 267.9801,
      "mean_motion_rev_day": 13.19727238
    },
    {
      "epoch": "2026-04-09T13:21:38.554272Z",
      "apogee_km": 1187.0533578596478,
      "perigee_km": 1184.4755802389955,
      "latitude_deg": -8.521754983175168e-05,
      "longitude_deg": -79.56893434684564,
      "height_km": 1188.7052002856365,
      "semi_major_axis_km": 7563.901469049321,
      "eccentricity": 0.0001704,
      "inclination_deg": 87.9188,
      "raan_deg": 318.6449,
      "arg_perigee_deg": 91.8639,
      "mean_anomaly_deg": 268.2688,
      "mean_motion_rev_day": 13.19726592
    },
    {
      "epoch": "2026-04-10T03:55:03.230976Z",
      "apogee_km": 1187.0580665747066,
      "perigee_km": 1184.4789260785692,
      "latitude_deg": 4.817443175530917e-06,
      "longitude_deg": 61.35931885243445,
      "height_km": 1188.7087723981522,
      "semi_major_axis_km": 7563.905496326638,
      "eccentricity": 0.00017049,
      "inclination_deg": 87.9186,
      "raan_deg": 318.5238,
      "arg_perigee_deg": 91.8435,
      "mean_anomaly_deg": 268.2893,
      "mean_motion_rev_day": 13.19725538
    },
    {
      "epoch": "2026-04-11T19:56:55.908960Z",
      "apogee_km": 1187.1044492783694,
      "perigee_km": 1184.448002953358,
      "latitude_deg": 2.949427396625176e-05,
      "longitude_deg": 178.91389780514132,
      "height_km": 1188.7349080747601,
      "semi_major_axis_km": 7563.913226115864,
      "eccentricity": 0.0001756,
      "inclination_deg": 87.9181,
      "raan_deg": 318.1919,
      "arg_perigee_deg": 92.5885,
      "mean_anomaly_deg": 267.5449,
      "mean_motion_rev_day": 13.19723515
    },
    {
      "epoch": "2026-04-12T23:14:34.567296Z",
      "apogee_km": 1187.093967811551,
      "perigee_km": 1184.4559778719022,
      "latitude_deg": -2.1263542195200215e-05,
      "longitude_deg": 128.15529111585687,
      "height_km": 1188.7466268435674,
      "semi_major_axis_km": 7563.911972841726,
      "eccentricity": 0.00017438,
      "inclination_deg": 87.918,
      "raan_deg": 317.9653,
      "arg_perigee_deg": 93.1694,
      "mean_anomaly_deg": 266.9638,
      "mean_motion_rev_day": 13.19723843
    },
    {
      "epoch": "2026-04-14T20:43:59.098080Z",
      "apogee_km": 1187.108743041881,
      "perigee_km": 1184.443220107174,
      "latitude_deg": -2.8400401239022546e-05,
      "longitude_deg": 163.5572671628136,
      "height_km": 1188.7497480237305,
      "semi_major_axis_km": 7563.912981574527,
      "eccentricity": 0.0001762,
      "inclination_deg": 87.9177,
      "raan_deg": 317.5877,
      "arg_perigee_deg": 93.229,
      "mean_anomaly_deg": 266.9044,
      "mean_motion_rev_day": 13.19723579
    }
  ]
}